{
  "type": "FeatureCollection",
  "features": [
    {
      "type": "Feature",
      "properties": {
        "norad_id": 41890,
        "name": "CYGFM07",
        "group": "weather",
        "lat": -9.368331570777341,
        "lon": -49.53443768065232,
        "alt_km": 411.72605668090455,
        "timestamp": "2025-12-21T11:31:42.483333+00:00",
        "meta_object_name": "CYGFM07",
        "meta_object_id": "2016-078G",
        "meta_epoch": "2025-12-21T03:52:19.631712",
        "meta_mean_motion": 15.503322,
        "meta_eccentricity": 0.0010006,
        "meta_inclination": 34.9486,
        "meta_ra_of_asc_node": 326.2227,
        "meta_arg_of_pericenter": 286.7554,
        "meta_mean_anomaly": 73.2071,
        "meta_ephemeris_type": 0,
        "meta_classification_type": "U",
        "meta_norad_cat_id": 41890,
        "meta_element_set_no": 999,
        "meta_rev_at_epoch": 50126,
        "meta_bstar": 0.00028515,
        "meta_mean_motion_dot": 0.00016701,
        "meta_mean_motion_ddot": 0,
        "tle_line1": "1 41890U 16078G   25355.16133833  .00016701  00000+0  28515-3 0  9990",
        "tle_line2": "2 41890  34.9486 326.2227 0010006 286.7554  73.2071 15.50332200501261"
      },
      "geometry": {
        "type": "Point",
        "coordinates": [
          -49.53443768065232,
          -9.368331570777341
        ]
      }
    },
    {
      "type": "Feature",
      "properties": {
        "norad_id": 41891,
        "name": "CYGFM03",
        "group": "weather",
        "lat": 2.905859518910068,
        "lon": 141.88549661433663,
        "alt_km": 415.974447650573,
        "timestamp": "2025-12-21T11:31:42.483344+00:00",
        "meta_object_name": "CYGFM03",
        "meta_object_id": "2016-078H",
        "meta_epoch": "2025-12-21T03:02:58.110144",
        "meta_mean_motion": 15.50226304,
        "meta_eccentricity": 0.0009663,
        "meta_inclination": 34.9438,
        "meta_ra_of_asc_node": 328.3716,
        "meta_arg_of_pericenter": 274.2708,
        "meta_mean_anomaly": 85.691,
        "meta_ephemeris_type": 0,
        "meta_classification_type": "U",
        "meta_norad_cat_id": 41891,
        "meta_element_set_no": 999,
        "meta_rev_at_epoch": 50123,
        "meta_bstar": 0.00027945,
        "meta_mean_motion_dot": 0.00016301,
        "meta_mean_motion_ddot": 0,
        "tle_line1": "1 41891U 16078H   25355.12706146  .00016301  00000+0  27945-3 0  9992",
        "tle_line2": "2 41891  34.9438 328.3716 0009663 274.2708  85.6910 15.50226304501238"
      },
      "geometry": {
        "type": "Point",
        "coordinates": [
          141.88549661433663,
          2.905859518910068
        ]
      }
    },
    {
      "type": "Feature",
      "properties": {
        "norad_id": 43010,
        "name": "FENGYUN 3D",
        "group": "weather",
        "lat": 14.436521666627486,
        "lon": -40.414193245794294,
        "alt_km": 828.0170180791292,
        "timestamp": "2025-12-21T11:31:42.483355+00:00",
        "meta_object_name": "FENGYUN 3D",
        "meta_object_id": "2017-072A",
        "meta_epoch": "2025-12-21T04:41:38.232096",
        "meta_mean_motion": 14.19686333,
        "meta_eccentricity": 0.0001361,
        "meta_inclination": 98.9898,
        "meta_ra_of_asc_node": 321.6324,
        "meta_arg_of_pericenter": 155.7507,
        "meta_mean_anomaly": 204.3733,
        "meta_ephemeris_type": 0,
        "meta_classification_type": "U",
        "meta_norad_cat_id": 43010,
        "meta_element_set_no": 999,
        "meta_rev_at_epoch": 41973,
        "meta_bstar": 0.00011758,
        "meta_mean_motion_dot": 2.03e-06,
        "meta_mean_motion_ddot": 0,
        "tle_line1": "1 43010U 17072A   25355.19558139  .00000203  00000+0  11758-3 0  9995",
        "tle_line2": "2 43010  98.9898 321.6324 0001361 155.7507 204.3733 14.19686333419733"
      },
      "geometry": {
        "type": "Point",
        "coordinates": [
          -40.414193245794294,
          14.436521666627486
        ]
      }
    },
    {
      "type": "Feature",
      "properties": {
        "norad_id": 43013,
        "name": "NOAA 20 (JPSS-1)",
        "group": "weather",
        "lat": 17.725339200891575,
        "lon": 114.5070562908875,
        "alt_km": 827.2428485334685,
        "timestamp": "2025-12-21T11:31:42.483366+00:00",
        "meta_object_name": "NOAA 20 (JPSS-1)",
        "meta_object_id": "2017-073A",
        "meta_epoch": "2025-12-21T02:18:35.873856",
        "meta_mean_motion": 14.19527744,
        "meta_eccentricity": 0.0002126,
        "meta_inclination": 98.7611,
        "meta_ra_of_asc_node": 291.3019,
        "meta_arg_of_pericenter": 75.2476,
        "meta_mean_anomaly": 284.8935,
        "meta_ephemeris_type": 0,
        "meta_classification_type": "U",
        "meta_norad_cat_id": 43013,
        "meta_element_set_no": 999,
        "meta_rev_at_epoch": 41920,
        "meta_bstar": 4.6206e-05,
        "meta_mean_motion_dot": 5.3e-07,
        "meta_mean_motion_ddot": 0,
        "tle_line1": "1 43013U 17073A   25355.09624854  .00000053  00000+0  46206-4 0  9996",
        "tle_line2": "2 43013  98.7611 291.3019 0002126  75.2476 284.8935 14.19527744419201"
      },
      "geometry": {
        "type": "Point",
        "coordinates": [
          114.5070562908875,
          17.725339200891575
        ]
      }
    },
    {
      "type": "Feature",
      "properties": {
        "norad_id": 43226,
        "name": "GOES 17",
        "group": "weather",
        "lat": 0.47973046541154474,
        "lon": 173.67534985321498,
        "alt_km": 35790.248332025745,
        "timestamp": "2025-12-21T11:31:42.483379+00:00",
        "meta_object_name": "GOES 17",
        "meta_object_id": "2018-022A",
        "meta_epoch": "2025-12-21T02:30:03.122784",
        "meta_mean_motion": 1.00270536,
        "meta_eccentricity": 0.0003096,
        "meta_inclination": 0.4779,
        "meta_ra_of_asc_node": 89.1372,
        "meta_arg_of_pericenter": 191.7505,
        "meta_mean_anomaly": 117.0464,
        "meta_ephemeris_type": 0,
        "meta_classification_type": "U",
        "meta_norad_cat_id": 43226,
        "meta_element_set_no": 999,
        "meta_rev_at_epoch": 2863,
        "meta_bstar": 0,
        "meta_mean_motion_dot": -1.6e-06,
        "meta_mean_motion_ddot": 0,
        "tle_line1": "1 43226U 18022A   25355.10420281 -.00000160  00000+0  00000+0 0  9994",
        "tle_line2": "2 43226   0.4779  89.1372 0003096 191.7505 117.0464  1.00270536 28638"
      },
      "geometry": {
        "type": "Point",
        "coordinates": [
          173.67534985321498,
          0.47973046541154474
        ]
      }
    },
    {
      "type": "Feature",
      "properties": {
        "norad_id": 43491,
        "name": "FENGYUN 2H",
        "group": "weather",
        "lat": -2.5538101729876073,
        "lon": -17.409759374969806,
        "alt_km": 35787.52466453606,
        "timestamp": "2025-12-21T11:31:42.483401+00:00",
        "meta_object_name": "FENGYUN 2H",
        "meta_object_id": "2018-050A",
        "meta_epoch": "2025-12-21T01:35:30.848928",
        "meta_mean_motion": 1.00271172,
        "meta_eccentricity": 0.0002365,
        "meta_inclination": 2.5713,
        "meta_ra_of_asc_node": 81.2426,
        "meta_arg_of_pericenter": 165.815,
        "meta_mean_anomaly": 306.0626,
        "meta_ephemeris_type": 0,
        "meta_classification_type": "U",
        "meta_norad_cat_id": 43491,
        "meta_element_set_no": 999,
        "meta_rev_at_epoch": 2765,
        "meta_bstar": 0,
        "meta_mean_motion_dot": -1.09e-06,
        "meta_mean_motion_ddot": 0,
        "tle_line1": "1 43491U 18050A   25355.06632927 -.00000109  00000+0  00000+0 0  9999",
        "tle_line2": "2 43491   2.5713  81.2426 0002365 165.8150 306.0626  1.00271172 27650"
      },
      "geometry": {
        "type": "Point",
        "coordinates": [
          -17.409759374969806,
          -2.5538101729876073
        ]
      }
    },
    {
      "type": "Feature",
      "properties": {
        "norad_id": 43689,
        "name": "METOP-C",
        "group": "weather",
        "lat": 4.281836553864236,
        "lon": 52.45926728757782,
        "alt_km": 822.0976807430561,
        "timestamp": "2025-12-21T11:31:42.483413+00:00",
        "meta_object_name": "METOP-C",
        "meta_object_id": "2018-087A",
        "meta_epoch": "2025-12-21T04:45:03.045888",
        "meta_mean_motion": 14.21487373,
        "meta_eccentricity": 8.39e-05,
        "meta_inclination": 98.6917,
        "meta_ra_of_asc_node": 52.8375,
        "meta_arg_of_pericenter": 24.4579,
        "meta_mean_anomaly": 335.6638,
        "meta_ephemeris_type": 0,
        "meta_classification_type": "U",
        "meta_norad_cat_id": 43689,
        "meta_element_set_no": 999,
        "meta_rev_at_epoch": 36954,
        "meta_bstar": 6.6832e-05,
        "meta_mean_motion_dot": 1.03e-06,
        "meta_mean_motion_ddot": 0,
        "tle_line1": "1 43689U 18087A   25355.19795192  .00000103  00000+0  66832-4 0  9999",
        "tle_line2": "2 43689  98.6917  52.8375 0000839  24.4579 335.6638 14.21487373369544"
      },
      "geometry": {
        "type": "Point",
        "coordinates": [
          52.45926728757782,
          4.281836553864236
        ]
      }
    }
  ]
}